name,phone,email,address,postalZip,GPE,ORG
Keefe Cook,1-533-202-6374,ridiculus@icloud.org,Ap #332-2746 Cras St.,J8H 4G3,Chile,WILLIAM GRAY & COMPANY LIMITED
Leslie Foreman,1-523-366-4305,ut.pellentesque@icloud.co.uk,Ap #695-2042 Magnis Street,753964,Germany,WAKEFIELD METAL TRADERS LIMITED
Aaron Reeves,(289) 787-3963,rhoncus.id.mollis@yahoo.co.uk,Ap #930-2389 Suspendisse Rd.,14163,Mexico,W.R.FLEETWOOD LIMITED
Conan Sawyer,1-182-363-6171,quisque.ornare@protonmail.org,348-6220 Diam Street,8475,Ireland,WILLIAM ROXBURGH (LAUDER BROTHERS) LIMITED
Richard Conrad,(796) 686-1758,hendrerit.neque.in@yahoo.org,Ap #489-4085 Lorem Avenue,7435,South Korea,YARDIMCI NAKLIYAT VE TICARET A S
Raymond Day,1-624-319-9774,non@protonmail.edu,Ap #572-8981 Turpis. Rd.,7667,Philippines,WILLIAM HAMILTON & COMPANY LIMITED
Boris Robbins,1-733-358-2162,ultricies@google.co.uk,7778 Eu Av.,21312,Poland,WILLIAM DENNY & BROTHERS LIMITED
Callum Hodges,(809) 875-4531,dolor.quisque.tincidunt@aol.net,258-4055 Magna. Road,47871,Indonesia,UNDERGROWTH HOUSING CO-OPERATIVE LIMITED
Darius Burke,(637) 301-2173,non.lacinia@hotmail.co.uk,P.O. Box 438; 3562 Libero Rd.,F22 1JN,France,UNICORN SOCIAL CLUB
Wyatt Stevens,(938) 288-1805,accumsan.laoreet.ipsum@outlook.edu,6745 Ultrices Ave,128270,China,UNITED CLYDEBANK SUPPORTERS LIMITED
Galvin Haney,(625) 314-8584,magnis.dis.parturient@aol.com,Ap #973-8008 Arcu. St.,18344-05721,Netherlands,UNITED FISHERMENS CO-OPERATIVE SOCIETY ( ST IVES) LIMITED
Jada Mcmahon,(869) 845-0622,hendrerit.neque.in@protonmail.ca,P.O. Box 110; 4453 Vestibulum Rd.,640661,Pakistan,UNITED FRIENDLY LIFE ASSURANCE LIMITED
Illana Goodwin,(583) 323-9364,nec.mauris@outlook.co.uk,476-5287 Molestie. St.,8210,Vietnam,UNITED GENERAL SEA BOX OF BORROW STOUNNESS FRIENDLY SOCIETY
Mikayla Sweeney,1-858-127-0328,tincidunt.vehicula.risus@hotmail.org,Ap #430-7851 Orci Ave,8347-6053,Chile,UNITED SERVICES SOCIAL CLUB (HUNSTANTON) LIMITED
Quail Nelson,1-118-107-4612,nulla@protonmail.com,Ap #939-4138 Donec Rd.,58581,Austria,UNITED SERVICES SOCIAL CLUB AND INSTITUTE POCKLINGTON
Imogene Ware,(775) 596-4125,lorem@protonmail.ca,6377 Lobortis; St.,87214,Netherlands,UNITED SERVICES SOCIAL CLUB; LLANIDLOES
Hiram Leon,1-529-128-2133,tempor.est@google.co.uk,949-131 Magna. Ave,357545,South Korea,UNUM LIFE INSURANCE COMPANY OF AMERICA
Amethyst Miller,1-585-574-6527,cursus.et@outlook.ca,263-4989 Non; Rd.,8347,Pakistan,UPPER AND LOWER WORTLEY LIBERAL CLUB
Honorato Horton,(667) 517-4107,ac.turpis.egestas@yahoo.edu,908-8866 Mauris Street,7102-3170,Turkey,UPPER HOPTON CLUB
Shaeleigh Lindsay,1-484-277-1303,sed.consequat.auctor@protonmail.ca,Ap #887-2119 Aliquam Avenue,68467,Norway,UPPINGHAM HOMES COMMUNITY LAND TRUST
Wing Barnes,1-485-764-6654,semper.auctor@yahoo.edu,6538 Vel; Ave,987224,Norway,UPTON SOCIAL CLUB
Tiger Emerson,(688) 613-8627,diam.nunc@icloud.ca,638-2497 Diam Road,4474,Pakistan,UPTON UNITED SERVICES CLUB
Harper Conner,1-310-997-8114,turpis.nec@google.com,1626 Faucibus St.,62-113,Colombia,UZBEKINVEST INTERNATIONAL INSURANCE COMPANY LIMITED
Dorian Koch,1-537-949-8805,nonummy@hotmail.com,Ap #573-9648 Penatibus Road,57416,United Kingdom,VALE FARM STORAGE (SON) LIMITED
Myles Stuart,1-645-338-6421,natoque.penatibus@icloud.com,625-4419 Malesuada Rd.,303311,Turkey,VALE OF DERWENT SOCIAL CLUB LIMITED
Haley Watson,(541) 580-8483,risus.quisque.libero@aol.co.uk,Ap #347-8698 Lacinia Av.,33551,India,VALLEYS TO COAST HOUSING LIMITED
Yoshio Wells,(276) 790-1227,proin.non@aol.edu,128-3560 Leo; St.,62-21,Mexico,VETERINARY DEFENCE SOCIETY LTD(THE)
Aaron Nichols,1-542-524-1815,magnis.dis@hotmail.org,Ap #215-3687 Amet; Road,72352,Canada,VICTORY CLUB (DERBY) LIMITED
Haley Daugherty,(581) 413-2688,massa.integer@google.com,6467 Et St.,77754,Australia,VICTORY REFORM CLUB
Sybil Buchanan,(754) 104-6877,ipsum.suspendisse@google.net,P.O. Box 821; 2378 Maecenas Road,766017,United Kingdom,VIEWPARK CREDIT UNION
Lyle Torres,1-663-328-3864,eu.tellus.eu@yahoo.co.uk,P.O. Box 872; 9011 Mauris Rd.,68V 8H4,Nigeria,VILLAGE CLUB AND INSTITUTE
Mikayla Miles,1-457-865-8515,neque@yahoo.ca,P.O. Box 459; 5978 Nec Rd.,394462,Poland,VIRGIN MONEY LIFE LIMITED
Ciaran Phelps,1-253-833-1451,vel.quam@hotmail.co.uk,8800 Viverra. Avenue,53536,United Kingdom,VISION OF MULUND HOUSING CO-OPERATIVE LIMITED
Ori Mclean,(183) 457-5155,amet.nulla@outlook.com,650-1216 Tellus Avenue,23168,Poland,VISION WELFARE HOUSING ASSOCIATION LIMITED
Dorian Farrell,(521) 313-3174,nisi.cum@outlook.com,Ap #993-4958 Commodo Street,1085,Spain,W.H.E.B. CREDIT UNION LIMITED
Sage Wynn,1-656-803-4332,aenean.gravida@hotmail.org,646-8101 Bibendum Rd.,4199,Belgium,WADDINGTON VILLAGE CLUB
Burton Taylor,(523) 215-4194,justo@icloud.co.uk,Ap #687-300 Dignissim Avenue,13028,Indonesia,WALLASEY ROYAL NAVAL ASSOCIATION CLUB LIMITED
Isaac Gay,(473) 976-0758,vel@hotmail.co.uk,681-1116 Aliquam; Av.,15162-742,Netherlands,WALSALL SUPPORTERS SOCIETY LIMITED
Jenna Sosa,1-662-864-5689,vitae.aliquam@yahoo.co.uk,239-6298 Id; St.,735304,Sweden,WALTHAM ESTATE RESIDENT MANAGEMENT ORGANISATION LIMITED
Nomlanga English,1-442-231-4371,penatibus@aol.org,P.O. Box 415; 6107 Fringilla Av.,31179-47974,Mexico,WARDENS' SOCIAL CLUB; SKELMERSDALE
Isabelle Langley,1-688-250-9382,accumsan@icloud.ca,1241 Ipsum Avenue,3754,Norway,WARREN WOOD SOCIAL CLUB
Lester Michael,(745) 829-4450,suspendisse.commodo@aol.co.uk,640-7016 In Street,1228,Brazil,WARRINGTON & DISTRICT MODEL ENGINEERING SOCIETY LIMITED
Clementine Hopkins,1-628-280-1211,cursus.purus.nullam@icloud.edu,P.O. Box 841; 3648 Risus Ave,333872,Brazil,WATERLOO SUBSCRIPTION BOWLING CLUB
Raymond Nielsen,1-836-561-0615,sed.auctor@google.edu,591-4454 Enim. Av.,823513,Mexico,WATFORD COMMUNITY HOUSING TRUST
Hector Lawson,1-376-531-4566,semper.pretium.neque@outlook.ca,Ap #718-5420 Et; St.,57761,Italy,WAVERLEY SPORTS AND SOCIAL CLUB
Kennedy English,1-693-264-4746,a.neque@hotmail.co.uk,142-5286 Luctus St.,8733,Ukraine,WEALD GRANARY LIMITED
Jason Morris,(955) 885-4319,sed.malesuada@protonmail.ca,Ap #670-5488 Dui. Av.,67366-612,Indonesia,WEALDEN WHOLEFOODS CO-OPERATIVE LIMITED
Rajah Parks,1-613-250-1178,diam.eu@hotmail.co.uk,222-1644 Pede. Road,61282-24868,New Zealand,WEEKE SOCIAL CLUB LIMITED
Bo Hicks,1-809-515-3136,blandit.enim@protonmail.edu,5270 Dolor. Road,749457,New Zealand,WELCOMBE COMMUNITY SHOP ASSOCIATION LTD.
Ria Downs,(144) 443-3686,ac.mattis@outlook.org,8656 Tristique Rd.,A8L 3C6,Singapore,WELLINGTON SOCIAL CLUB
Brenna Payne,(442) 661-5586,dui.fusce.diam@icloud.co.uk,3116 Luctus. St.,968488,South Africa,WESSEX FINANCIAL ADMINISTRATION LIMITED
Zephania Lowe,1-617-926-7424,sed.molestie@yahoo.com,2656 Vehicula Avenue,753123,Colombia,WESSEX INSTITUTE OF TECHNOLOGY
Levi Potts,(979) 379-8354,vitae.erat@icloud.co.uk,Ap #168-8058 Nullam Ave,5880 OD,Ukraine,WEST BOROUGH CLUB
Sheila Crawford,(275) 349-0066,dolor.quam@outlook.ca,716-6477 Eu Av.,241398,Peru,WEST BYFLEET SOCIAL CLUB
Hammett Dunlap,1-236-401-8635,elit.nulla@protonmail.org,381-7519 Rhoncus Road,4854,South Korea,WEST GRANTON HOUSING CO-OPERATIVE LIMITED
Hamish Lowe,1-315-841-8477,diam.duis@google.com,Ap #275-4451 Erat; Road,12753-63983,Russian Federation,WEST HUMBERSTONE ALLOTMENT SOCIETY
Mia Guy,(248) 746-1573,amet.ultricies.sem@outlook.net,P.O. Box 193; 2996 Erat Av.,404823,Turkey,WEST KIRBY SOCIAL CLUB
Moses Norton,(216) 696-1712,non.sollicitudin@hotmail.edu,849-4499 Torquent Rd.,719227,Spain,WEST MALVERN CLUB LIMITED
Kai Copeland,(257) 846-2383,semper.pretium@icloud.org,958-4382 Imperdiet Rd.,29625,Turkey,WEST MEON COMMUNITY SHOP ASSOCIATION LIMITED
Hedda Rogers,(722) 694-6154,consequat.lectus@yahoo.co.uk,Ap #464-6384 Mauris Street,7319,United Kingdom,WEST MOOR AND DISTRICT SOCIAL CLUB LIMITED
Zenia Barlow,1-327-865-6187,laoreet.ipsum@protonmail.ca,187-6292 Amet Rd.,613525,Belgium,WEST OF SCOTLAND FISH PRODUCERS' ORGANISATION LIMITED
Pamela Houston,1-717-335-8345,magna.phasellus@google.org,P.O. Box 884; 1916 Semper St.,152518,Belgium,WEST PARK LEEDS RUGBY UNION FOOTBALL CLUB LIMITED
Kasper Mayo,1-523-512-4931,a.sollicitudin.orci@google.net,Ap #837-9314 Vestibulum. Rd.,75-558,Ireland,WEST SHORE BOWLING CLUB AND INSTITUTE
Madison Warren,1-980-540-2723,sem@protonmail.com,605-5025 Praesent Street,Y7T 4E0,Indonesia,WEST WHITLAWBURN HOUSING CO-OPERATIVE LIMITED
Giselle Rhodes,(853) 366-1250,vestibulum.neque@hotmail.co.uk,880-388 Cras Road,15867-66735,Norway,WEST WIGHT SOCIAL CLUB
Myra Lawrence,(454) 835-7726,et.eros@google.net,3719 Cum Road,2016,Netherlands,WESTBAY RABBIT CLEARANCE SOCIETY LIMITED
Myra Montoya,1-868-343-8246,lacus.aliquam@icloud.com,439-1109 Erat St.,419466,Brazil,WESTBURY VILLAGE CLUB
Rajah Chapman,1-810-158-3052,sem@outlook.co.uk,765-8767 Odio St.,42019,Russian Federation,WESTERN ISLES CREDIT UNION LIMITED
Kuame Mcgowan,1-911-869-3386,lobortis.class@outlook.net,4587 Eu Street,754787,New Zealand,WESTFIELD SPORTS & COMMUNITY CENTRE LIMITED
Colin Dixon,(723) 217-6178,vitae.odio@google.net,344-3011 Dictum St.,22552,Indonesia,WESTGATE WARD SOCIAL CLUB (IPSWICH)
Axel Padilla,1-137-496-7404,ligula.donec@protonmail.ca,Ap #631-2698 Velit Rd.,718802,India,WESTGATE-ON-SEA SOCIAL CLUB
Oscar Blanchard,(465) 527-1833,ligula@hotmail.com,P.O. Box 984; 8603 Nulla Ave,2481,Norway,WESTHOUGHTON SPORTS & SOCIAL CLUB
Abdul Sexton,1-492-520-5183,sagittis.semper@hotmail.net,Ap #845-9852 In Street,588110,Norway,WESTON-SUPER-MARE BOROUGH EMPLOYEES SPORTS CLUB
Michelle Barlow,1-655-864-7371,fermentum.fermentum.arcu@icloud.com,8713 Vulputate; Rd.,87164,South Korea,WESTON-SUPER-MARE SOCIAL CLUB
Illana Hamilton,(557) 536-6848,dictum.proin@google.org,P.O. Box 152; 8971 Volutpat. St.,2608,Indonesia,WEYMOUTH AND PORTLAND RUGBY FOOTBALL CLUB LIMITED
Lysandra Bentley,(239) 361-2862,integer.vulputate.risus@google.net,Ap #979-1068 Tristique Street,4534,Belgium,WEYMOUTH F.C. SUPPORTERS SOCIETY LIMITED
Tashya Bell,1-141-616-4667,a.scelerisque@aol.com,7788 Aliquet; Ave,2837,South Korea,WHEATLEY HILLS (DONCASTER) RUGBY FOOTBALL CLUB LIMITED
Andrew Collins,1-367-427-7344,senectus.et@icloud.org,P.O. Box 887; 2567 Varius Road,9594,Spain,WHEATLEY HOMES EAST LIMITED
Preston Flores,(510) 940-8605,pede@google.edu,Ap #635-7261 Nullam St.,58963,Colombia,WHITBOURNE VILLAGE COMMUNITY SHOP ASSOCIATION LIMITED
Ayanna Thomas,1-223-226-7997,metus.in@hotmail.com,216-6546 Mi Avenue,6188,Singapore,WHITBURN; MARSDEN AND DISTRICT SOCIAL CLUB AND INSTITUTE LIMITED
Lester Cantu,1-814-246-8615,dis@icloud.com,3441 Nullam Rd.,5336,Turkey,WHITE CART CREDIT UNION LIMITED
Hiroko Curry,1-976-945-7509,aliquam@protonmail.org,7943 Arcu. Street,2542,Ukraine,WHITECHAPEL SOCIETY FOR THE ADVANCEMENT OF KNOWLEDGE OF GASTROENTEROLOGY
Kaseem Cotton,(542) 323-4728,odio.sagittis@google.co.uk,4331 Cras Road,E4 2NN,Russian Federation,WHITLEY BAY COMRADES CLUB LIMITED
Kyra Holt,1-517-786-4701,vivamus@icloud.ca,442-3992 Dui St.,46783-58830,Pakistan,WHITTINGHAM & GOOSNARGH SPORTS AND SOCIAL CLUB
Megan Kennedy,(621) 433-5434,semper.tellus@protonmail.org,249-9859 Consectetuer Ave,7513 OU,Spain,WHITWORTH FOOTBALL AND CRICKET CLUB
Oprah Villarreal,(686) 141-6511,enim@hotmail.net,101-5101 Quis Av.,456977,Vietnam,WHITWORTH VALE AND HEALEY AMATEUR BRASS BAND CLUB
Adele Holmes,1-952-702-1885,parturient.montes@google.net,Ap #522-5448 Risus. St.,21182,United States,WIDNES INDEPENDENT SUPPORTERS SOCIETY LIMITED
Diana Bowers,(513) 811-4285,quam.curabitur.vel@icloud.net,1815 Diam. Rd.,60772-315,India,WIGMORE VILLAGE SHOP ASSOCIATION LIMITED
Branden Melendez,(623) 952-8466,sem@google.net,8229 Senectus Ave,j3G 4M5,Philippines,WILLESDEN COMMUNITY SPORTS LIMITED
Chanda Huffman,1-552-508-2513,auctor@hotmail.co.uk,Ap #252-9493 Mollis Rd.,7384,Canada,WILLIAM COLLINS; NO.162; A BRANCH OF THE IRISH NATIONAL FORESTERS BENEFIT SOCIETY
Chancellor Combs,(639) 332-8351,conubia.nostra@outlook.com,P.O. Box 711; 1402 Et Street,52344,Pakistan,WILLIAM ORR; NO.189; A BRANCH OF THE IRISH NATIONAL FORESTERS BENEFIT SOCIETY
Irma Mccormick,(154) 390-5778,elit.fermentum@google.net,204-3141 Non; Rd.,86555,Australia,WILMCOTE SPORTS AND SOCIAL CLUB
Amity Cortez,1-893-423-6404,facilisis@google.com,951-5227 Elementum Street,388474,Turkey,WIMBLEDON DISTRICT NURSING AND MIDWIFERY BENEVOLENT SOCIETY
Brendan Hull,1-322-882-8215,felis@yahoo.co.uk,Ap #539-8033 Vulputate Ave,272366,Austria,WINCHESTER CONSERVATIVE CLUB LIMITED
Ryan Hughes,1-817-974-6131,dictum.ultricies@protonmail.net,Ap #211-7671 Turpis Road,85511,Poland,WINDERMERE RUGBY UNION FOOTBALL CLUB LIMITED
Linus Casey,(468) 807-7205,lorem.fringilla@google.co.uk,Ap #572-3256 Curabitur Road,42268,South Korea,WINDMILL HILL COMMUNITY ASSOCIATION SOCIAL CLUB LIMITED
Rae Sexton,1-476-679-0617,felis.donec.tempor@aol.edu,816-4481 Suspendisse Road,476944,Austria,WINDSOR ALLOTMENTS AND HOME GARDENS ASSOCIATION LIMITED
Jamalia Wilkerson,(558) 374-4515,orci.lacus@google.org,920-4705 Quisque Ave,713371,Canada,WINDSOR DRIVE SOCIAL CLUB LIMITED
Maggie Russo,(352) 367-2101,hendrerit.id.ante@protonmail.com,766-993 Ut Street,KC5P 8JP,Philippines,WING VILLAGE SPORTS AND SOCIAL CLUB
Hedy Alford,1-280-118-6551,nullam.vitae.diam@protonmail.co.uk,407-4720 Dictum. St.,271582,Philippines,WINLATON VULCANS RUGBY FOOTBALL CLUB LIMITED
Ori Madden,1-920-870-3245,et@icloud.org,120-3196 Odio Ave,58288,India,WINSLEY SOCIAL CLUB
Stephen Shepherd,1-474-286-4278,quis@yahoo.net,243-7828 Non; Avenue,57-34,Ukraine,WINSLOW RUGBY UNION FOOTBALL CLUB LIMITED
Maxwell Short,(381) 215-6684,justo.eu@hotmail.edu,851-7517 Lectus Road,24472,Colombia,WINSOR HOUSING CO-OPERATIVE LIMITED
Elijah Lindsay,1-786-787-8227,suscipit@google.ca,Ap #240-2966 Fringilla Av.,418414,Ukraine,WINTERTHUR LIFE UK LIMITED
Wade Herman,(823) 422-8244,rhoncus.nullam@outlook.org,P.O. Box 198; 7618 Magna Av.,24189,India,WINTON LIBERAL CLUB
Ina Hogan,1-532-230-2948,maecenas.iaculis@hotmail.org,Ap #684-6575 Nulla Av.,2225,Brazil,WISBECH SOCIAL CLUB AND INSTITUTE
Aretha Sosa,(737) 616-1822,mi@icloud.edu,278-3523 Nam Avenue,685874,Singapore,WISHAWTOWN FUNERAL SOCIETY
Bertha Aguirre,1-740-661-6742,purus.mauris.a@yahoo.net,Ap #773-4246 Vulputate Road,5794,Indonesia,WITHERSLACK COMMUNITY SHOP LIMITED
Jordan Dale,1-578-725-5224,vehicula.risus@yahoo.net,315-7229 Nascetur Street,61435-157,Spain,WOKING COMMUNITY TRANSPORT LIMITED
Kyle Cooke,(721) 846-0628,ante.ipsum@outlook.ca,Ap #992-6549 Enim. Ave,6887,Vietnam,WOLSINGHAM CONSTITUTIONAL CLUB AND INSTITUTE LIMITED
Zephania Barker,1-303-820-7059,eget.magna.suspendisse@google.net,5103 Ut St.,5725,Russian Federation,WOLVERTON WORKMEN'S SOCIAL CLUB
Sierra Stephenson,(481) 711-2494,interdum.sed.auctor@aol.co.uk,652-7569 Magna Road,8437,United States,WONERSH VILLAGE CLUB
Debra Melendez,1-434-243-4013,in.hendrerit@google.net,P.O. Box 356; 6234 Sociosqu Av.,504395,Sweden,WOODFIELD SOCIAL AND RECREATIONAL CLUB
Keefe Shepard,(656) 562-3200,hymenaeos.mauris.ut@yahoo.net,1578 Morbi Road,29-722,France,WOODGREEN COMMUNITY SHOP ASSOCIATION LIMITED
Laith Mccarty,(753) 503-1457,phasellus.dolor@icloud.org,Ap #172-6296 Egestas St.,T7J 1N8,Austria,WOOLFEST LIMITED
Aidan Walls,1-772-917-9447,dignissim@aol.org,594-8057 A; Ave,177327,France,WOOLSTON SOCIAL CLUB
Gloria Bartlett,(619) 986-3238,quisque.purus@google.net,Ap #723-6589 Et Av.,5652,Costa Rica,WOOLTON VILLAGE CLUB
Rae Norton,1-683-335-0535,proin@icloud.net,Ap #502-9363 Est. Rd.,772812,Italy,WORCESTER R.F.C. LIMITED
Yuli Reid,(978) 657-1451,aenean.massa.integer@yahoo.net,Ap #735-9278 Amet Rd.,522615,Poland,WORLD WIDE REASSURANCE COMPANY
Tamara Daniels,1-730-667-2454,ac@aol.edu,Ap #680-2836 Quam. Av.,P1 2OV,Singapore,WORSHIPFUL COMPANY OF SADDLERS
Megan Woodward,1-985-596-6382,amet@outlook.ca,Ap #346-4444 Iaculis St.,622623,Australia,WORSLEY MESNES CLUB LIMITED
Kasimir Jacobs,1-207-550-2837,urna.convallis@google.ca,3144 Nisi St.,4753,Poland,WORTH CPT LIMITED
Sara Bowen,1-639-472-5271,interdum.nunc@yahoo.com,P.O. Box 725; 9657 Amet Ave,842667,Norway,WORTLEY MEN'S CLUB AND INSTITUTE
Rylee Mitchell,(788) 488-5821,elementum.sem@outlook.org,234-3484 Non; Avenue,332986,United Kingdom,WOTE STREET CLUB
Brenna Rodriguez,1-234-561-2722,eget.venenatis@google.com,3008 Sociosqu Street,3567,Colombia,WRAYSBURY VILLAGE CLUB AND INSTITUTE
Flavia Blackburn,1-488-772-6124,nullam.feugiat.placerat@hotmail.ca,Ap #437-3198 Iaculis; Av.,3972137,New Zealand,WREN INSURANCE ASSOCIATION LIMITED(THE)
Quemby Lamb,(837) 151-8251,nunc@hotmail.co.uk,875-6166 Tincidunt Road,623389,Peru,WREXHAM FOOTBALL SUPPORTERS' SOCIETY LIMITED
Byron Noel,1-682-506-8149,vulputate.lacus@protonmail.edu,Ap #948-1332 Metus Road,24972,Brazil,WROUGHTON CLUB
Nicholas Blanchard,(830) 416-3355,nunc.quis@aol.edu,Ap #686-7410 Quisque Rd.,3673 FW,Germany,WURTTEMBERGISCHE VERSICHERUNG AKTIENGESELLSCHAFT
Randall Ramos,1-744-142-3689,magna.malesuada@hotmail.edu,254-7824 Urna. Street,4893,United Kingdom,WYE COMMUNITY FARM LIMITED
Erasmus Marsh,(201) 335-3009,a.ultricies@icloud.org,Ap #624-4613 Posuere; St.,9621,Australia,WYEDEAN HOUSING ASSOCIATION LIMITED
Mariam Fry,1-657-827-4281,leo@aol.com,7808 Magnis Rd.,24760,Poland,WYKE REGIS SOCIAL CLUB
Kenneth Hoffman,1-825-625-8372,orci.phasellus@hotmail.ca,Ap #426-2800 Tellus Avenue,88142-516,France,XANADU HOUSING CO-OPERATIVE LIMITED
Anthony Walsh,(748) 851-3116,arcu.vivamus@protonmail.edu,P.O. Box 386; 7248 Quis; Road,B1 3FU,Australia,XEROX (MITCHELDEAN) SPORTS & SOCIAL CLUB
Virginia Chang,(436) 406-5215,vitae.diam@icloud.ca,790-3536 Ornare. Ave,18403,India,XL CAPITAL ASSURANCE (U.K.) LIMITED
Dane Rivers,(406) 228-1294,lacus@outlook.co.uk,Ap #152-5443 Ullamcorper; Avenue,64338,France,XL RE LTD
Nathaniel Larson,(828) 253-2668,tortor@protonmail.edu,1912 Augue St.,66621-32406,New Zealand,XL SPECIALITY INSURANCE COMPANY
Hiram Parker,1-825-965-1453,lectus.pede.ultrices@aol.org,4044 Semper Avenue,56782,Philippines,XL WINTERTHUR INTERNATIONAL INSURANCE COMPANY LIMITED
Nerea Sharpe,1-237-753-5747,sit.amet@outlook.co.uk,5949 Ac St.,1519,Norway,YARPOLE COMMUNITY SHOP ASSOCIATION LIMITED
Salvador Walker,(875) 958-8902,ipsum.suspendisse@aol.com,615 Nunc Ave,52-73,Peru,YE OLDE VILLAGE CLUB
Kato Fischer,1-369-574-7422,mauris.ipsum@protonmail.edu,P.O. Box 922; 7494 Integer Street,Y1N 5X4,Vietnam,YEOVIL EX-SERVICES AND SOCIAL CLUB LIMITED
Neville Gardner,(105) 747-0841,suspendisse.aliquet@yahoo.net,Ap #432-2639 Lacus; Road,456194,Turkey,YEOVIL LABOUR CLUB LIMITED
Leonard Neal,1-228-816-1865,ligula.aenean@yahoo.edu,Ap #770-944 Vulputate Ave,12806,Peru,YEOVIL LABOUR INSTITUTE SOCIETY LIMITED
Mara Nelson,1-576-735-3687,ut.semper.pretium@icloud.com,203 Dui; Street,FH36 3BI,New Zealand,YESHURUN SYNAGOGUE BURIAL SOCIETY
Rachel Cummings,(610) 817-5829,suspendisse.sagittis.nullam@protonmail.org,678-1184 Primis Avenue,538663,Colombia,YIEWSLEY AND WEST DRAYTON IVY LEAF MEMORIAL CLUB LIMITED
Iris Snyder,1-350-521-1538,orci.consectetuer@yahoo.co.uk,6487 Et Road,257473,Indonesia,YNYSHIR AND DISTRICT WORKMEN'S CLUB AND INSTITUTE LIMITED
Belle Adkins,1-376-151-4714,felis.orci@protonmail.com,Ap #854-7686 Accumsan Road,221381,Ireland,YNYSYBWL CONSTITUTIONAL CLUB LIMITED
Noel Gaines,(237) 280-6585,nulla@hotmail.org,Ap #346-6473 Nullam Rd.,243165,United Kingdom,YORK BURTON LANE CLUB AND INSTITUTE LIMITED
Oscar Turner,1-315-837-3336,tempor.arcu.vestibulum@hotmail.co.uk,Ap #205-7497 Velit Road,4358,Italy,YORK CLARENCE CLUB AND INSTITUTE LIMITED
Meredith Moreno,(234) 562-1428,sed.pharetra.felis@hotmail.org,8695 Arcu. Road,234812,Ukraine,YORK CREDIT UNION LIMITED
Cole House,(665) 715-7525,arcu.nunc@outlook.co.uk,395-9460 Mattis Avenue,66-57,Colombia,YORKSHIRE CLARION CLUBHOUSE LIMITED
Adria Fleming,1-234-448-0818,fusce@aol.org,Ap #609-1559 Nulla Ave,425559,Turkey,YORKSHIRE FORESTERS' CONVALESCENT HOME
Kaye Randolph,1-699-506-3012,pede.suspendisse@outlook.org,Ap #388-2577 Fusce Avenue,6675,Belgium,YORKSHIRE FRIENDS' HOUSING SOCIETY LIMITED
Oscar Colon,1-781-746-4675,odio.aliquam@hotmail.com,Ap #108-7294 Sodales Rd.,97-76,Norway,YORKSHIRE MOUNTAINEERING CLUB LIMITED
Sylvia Mcmahon,(391) 831-4134,non.dapibus@aol.org,2341 Eros Ave,139853,Norway,YSTRAD MYNACH NON-POLITICAL SOCIAL CLUB AND INSTITUTE LIMITED
Tanisha O'donnell,(571) 836-6787,phasellus@aol.org,Ap #804-4330 Eget St.,t7C 2Y4,Nigeria,ZINGARI CLUB AND INSTITUTE LIMITED
Chandler Ferguson,1-282-218-1158,sapien.cras@aol.com,Ap #948-7953 Fermentum Rd.,228615,Russian Federation,ZURICH ASSURANCE (2004) PLC
Rajah Cobb,1-978-674-0036,hendrerit@google.org,524-3409 Vulputate Ave,881647,Norway,ZURICH SPECIALTIES LONDON LIMITED
Naida Donaldson,(807) 932-3756,cras.eget@hotmail.net,Ap #405-9015 Nec Street,482152,Poland,WM HARDILL SONS & CO LIMITED
Micah Donaldson,(789) 397-2973,in.consequat@aol.co.uk,9677 Ac Av.,7312-1054,Indonesia,W.& H.MIERS;LIMITED
Quinlan Jacobs,(620) 205-7633,amet.nulla@outlook.co.uk,764-5686 Lorem Ave,58916,Austria,WOLDINGHAM ASSOCIATION LIMITED(THE)
Sierra Evans,1-783-815-4818,nulla.eget@google.edu,P.O. Box 249; 9265 Mauris St.,223615,Costa Rica,VAILLANT EUROPEAN HOLDINGS LIMITED
Daryl Reeves,1-183-420-0512,hendrerit@yahoo.edu,Ap #931-9333 Ac Av.,6734,South Africa,WILLIAM POLLARD & COMPANY LIMITED
Halla Fulton,1-473-420-0989,mauris@protonmail.co.uk,389-8585 Est; Avenue,505038,United Kingdom,W.F.GREENWOOD & SONS;LIMITED
Clarke Daugherty,(433) 954-3125,cras.vulputate.velit@outlook.org,437 Gravida Avenue,10977,Canada,VESTEY HOLDINGS LIMITED
Cassandra Holcomb,1-913-646-1731,nunc.ac@hotmail.org,Ap #680-1570 Velit. St.,2858,Singapore,WATERDORM PLC
Wang Mendez,1-279-211-6626,eleifend.cras.sed@icloud.net,Ap #198-8076 Ornare. St.,68831,South Korea,WEST ESSEX GOLF CLUB LIMITED
Nigel Sanchez,(281) 663-3768,eros@protonmail.net,1622 Ut Rd.,81004-60237,Australia,W.BOYES & CO.;LIMITED
Duncan Doyle,1-943-464-0175,et@icloud.ca,198-464 Odio. Av.,24545,Costa Rica,WILLIAM IRWIN (HOLDINGS) LIMITED
Zia Holloway,1-550-114-3698,risus.quisque@google.edu,5777 Sit Rd.,11918,Norway,WEST HAM UNITED FOOTBALL CLUB LIMITED
May Battle,(654) 617-3814,vel.nisl@outlook.co.uk,4726 Vulputate Rd.,66-645,United Kingdom,WALKER & SMITH;BATLEY;LIMITED
Malik Bryan,1-328-503-9277,egestas.aliquam@yahoo.co.uk,579-6242 Sit Rd.,22333,Austria,WHITTAKER BROS.;LIMITED
Anjolie Ellison,(666) 870-3326,sed.congue@hotmail.net,3484 Aliquet. Road,6535,Colombia,WILLIAM HAMMOND;LIMITED
Buffy Peters,(626) 984-8700,dui.nec@hotmail.net,274-5883 Vel Av.,889811,Belgium,UNEX INVESTMENT TRUST LIMITED
Zenia Bradshaw,1-318-695-4253,rhoncus@google.ca,117-5500 Tortor Avenue,27515,Sweden,VOSPER THORNYCROFT (UK) LIMITED
Noelle Luna,1-704-951-1554,cursus.luctus@hotmail.com,7600 Augue Ave,385111,Chile,WILLIAM BROWN (EAST ANGLIA) LIMITED
Rhoda Bryan,(156) 244-1684,feugiat@protonmail.co.uk,P.O. Box 371; 3865 Velit. Av.,84-125,Costa Rica,VI - SPRING LIMITED
Cherokee Gould,(325) 668-0471,eu.sem@google.org,Ap #861-2906 Sit Street,5856,New Zealand,WOKING GOLF CLUB ESTATES LIMITED
Walker Blackburn,(380) 636-4668,lectus.pede.ultrices@aol.edu,2186 Urna Ave,320717,United Kingdom,WASHINGTON UNION CLUB COMPANY;LIMITED(THE)
Ursa Reynolds,(535) 404-6773,lacus.aliquam.rutrum@hotmail.edu,Ap #599-8921 Lacus Street,8583,South Africa,WEST RIDING ENGINEERING LIMITED
Joel Gilliam,(817) 936-8113,molestie.orci@icloud.org,P.O. Box 695; 1987 Sagittis. Av.,26664,Australia,WILLIAM CROXSON & SON;LIMITED
Ivan Ingram,1-184-954-7775,neque@protonmail.edu,Ap #397-6794 Enim Av.,6264,Russian Federation,WEST END(OLDHAM)BOWLING COMPANY LIMITED.(THE)
Hollee Whitfield,(171) 724-6373,massa.lobortis.ultrices@yahoo.ca,4273 Nec Rd.,45096,Costa Rica,VEOLIA ES CLEANAWAY HOLDINGS LIMITED
Theodore Jensen,1-866-353-4292,massa.lobortis@google.org,379-8627 Rutrum Avenue,54288,Indonesia,WILLIAM BEARDMORE & CO.;LIMITED
Shellie Wilkins,1-814-859-5935,sollicitudin@google.com,Ap #889-7969 Penatibus Road,5682,Ukraine,WARRENS TRANSPORT LIMITED
Juliet Bryan,1-347-954-2867,fringilla.euismod@hotmail.ca,685-9585 Eget Ave,157342,Ireland,WHITBREAD DUNSTABLE LIMITED
Sonia Salazar,(383) 511-5722,iaculis.quis@icloud.co.uk,Ap #790-9939 Taciti St.,60253-250,Pakistan,WILLIAM COOK LIMITED
Theodore Petty,(363) 435-2247,massa@yahoo.org,381-5126 Diam. Avenue,11142,Belgium,URC THAMES NORTH TRUST
Phelan O'donnell,(973) 296-7938,risus@icloud.edu,938 Nunc St.,9568,Ukraine,W.J. SHAW & SONS; LIMITED
Hashim Grimes,(378) 932-7828,sagittis@aol.edu,Ap #628-1286 Enim. Av.,88281,Pakistan,VEEVERS & HENSMAN LIMITED
Luke Huff,1-111-745-4846,mauris.a@yahoo.net,698-7933 Senectus St.,233358,Costa Rica,WKCS 4004 LIMITED
Mollie Aguilar,1-592-697-0869,sem@protonmail.net,5123 Aliquam Rd.,12407,South Africa,WATKINS NAYLER AND COMPANY LIMITED
Lee Wood,(831) 832-4726,integer@icloud.edu,160-5213 Fringilla Avenue,24979,Indonesia,WEIR MINERALS EUROPE LIMITED
Mia Walton,(220) 224-8331,odio.aliquam.vulputate@aol.edu,239-4483 Natoque St.,Y3G 6S4,Colombia,VIADUCT HOLDINGS PLC
Rhiannon Ball,1-621-228-0684,magna.sed.eu@yahoo.ca,Ap #832-1188 Tortor Avenue,2744-3304,Netherlands,UNILEVER UK & CN HOLDINGS LIMITED
Tashya Huff,(936) 377-8085,nisi.dictum@protonmail.com,831-5792 Non; Rd.,692185,Austria,Z.HINCHLIFFE & SONS LIMITED
Cooper Sosa,(694) 702-0161,mauris.sapien@google.co.uk,Ap #422-3574 Interdum Ave,48161,Canada,WALLIS LIMITED
Jillian Alvarez,(786) 247-1220,magna.a@yahoo.net,Ap #815-1495 Et Rd.,332327,Sweden,UNION JACK CLUB (THE)
Dale Atkinson,(446) 410-1872,nullam.enim@hotmail.co.uk,P.O. Box 807; 3588 Eu; Rd.,6196,Germany,WINGATE & JOHNSTON LIMITED
Jaime Green,(631) 119-1055,sociis.natoque@outlook.co.uk,Ap #170-4477 Luctus Av.,833125,Peru,WELLINGBOROUGH MASONIC HALL COMPANY;LIMITED(THE)
Gisela Beach,(878) 728-1474,mi.tempor.lorem@aol.net,Ap #557-6855 Vestibulum St.,A7J 5P6,Nigeria,VANDOME & HART LIMITED
Lamar Aguirre,1-271-231-5615,mauris.aliquam.eu@yahoo.ca,Ap #118-2437 Tempor Street,1041,Netherlands,WIGAN BOWLING GREEN;LIMITED
Warren Hopkins,1-346-878-2157,mauris.eu@protonmail.ca,6050 Quis; Ave,88731,Philippines,WELLMAN FURNACES LIMITED
Fritz Flynn,1-221-626-7686,ornare@hotmail.com,9665 Ante Street,134769,Austria,W.RICHARDS & SONS LIMITED
Quynn Clements,(732) 372-5839,inceptos.hymenaeos@protonmail.edu,P.O. Box 435; 2221 Libero Street,17645,Poland,ZURICH LEGACY SOLUTIONS SERVICES (UK) LIMITED
Carter Casey,(288) 709-5532,et.netus.et@outlook.co.uk,P.O. Box 680; 1265 Lobortis St.,3284,Costa Rica,WOODCOTE GROVE ESTATE LIMITED
Karyn Farrell,1-555-249-4748,mauris.blandit.mattis@hotmail.co.uk,3610 Pede. Rd.,49277,Spain,YORKSHIRE LADIES'COUNCIL OF EDUCATION(INCORPORATED)(THE)
Uma Sweeney,(624) 628-3748,feugiat@google.ca,P.O. Box 283; 1581 Mus. Rd.,56-488,Austria,WILLIAM MORRIS ROLLING MILLS LIMITED
Kennan Bryan,1-166-598-1577,iaculis.quis.pede@protonmail.com,633 Erat; Av.,605509,Belgium,WOOD MITCHELL PRINTERS LIMITED
Penelope Mayo,(422) 228-3282,bibendum.sed@google.net,Ap #115-6158 Quis Rd.,8844,Peru,WELLS GARDNER;DARTON & CO;LIMITED
Colby Mayo,(447) 248-8792,vivamus@aol.com,2455 Pede; Rd.,50203,United States,W.J.PELLOW LIMITED
Inez Brewer,(116) 521-2670,neque.sed.sem@outlook.ca,P.O. Box 655; 9043 Vitae St.,41307,Turkey,VESUVIUS UK (2002) LIMITED
Ryder Joyner,1-312-412-0767,molestie.tellus.aenean@hotmail.co.uk,440-4554 Sem Rd.,164173,Pakistan,WOOD BROTHERS GLASS COMPANY LIMITED
Castor Cabrera,(367) 627-6105,ullamcorper@yahoo.ca,P.O. Box 922; 980 Sed Street,75571,Indonesia,VERTICO FOURTEEN LIMITED
Nehru Riddle,(972) 613-0653,risus@yahoo.ca,Ap #329-8172 Sed St.,9554,India,WILLIAM OVERY CRANE HIRE LIMITED
Ariana Morrison,1-502-955-1925,etiam@yahoo.net,377-3286 Penatibus St.,2735,Russian Federation,YORKSHIRE CONGREGATIONAL UNION (INCORPORATED) (THE)
Zeus Austin,1-483-573-3298,a.enim@icloud.com,Ap #913-3838 Posuere Road,35460,United States,WOOLLISCROFT'S LIMITED
Basil Hensley,(643) 450-7927,morbi.accumsan.laoreet@google.edu,Ap #139-9135 Sollicitudin Av.,5702,Costa Rica,WITHINGTON BOWLING CLUB (1905) LIMITED(THE)
Laith Morse,1-366-783-9783,luctus@aol.com,5111 Orci Avenue,86-617,South Korea,WILLIAM HOLLINS SPINNERS LIMITED
Orla Gill,1-214-784-6448,ligula.aenean.gravida@outlook.edu,192-4085 Mauris Road,08475-46432,United Kingdom,WF ELECTRICAL LIMITED
Herrod Dotson,(579) 593-0892,sociis.natoque.penatibus@google.ca,8463 Tincidunt Ave,78564,Mexico,WILLIAM ARMES LIMITED
Jermaine Gates,1-507-221-4257,consectetuer.ipsum@yahoo.co.uk,P.O. Box 160; 3581 Nulla Ave,4316,Canada,WILLIAM POTTS & SONS LIMITED
Imani Bean,1-243-251-3056,consectetuer.cursus.et@outlook.com,418-5653 Eget Ave,2969,Philippines,YMCA WHITE ROSE
Venus Schneider,(428) 285-2946,erat.semper@aol.com,149-6607 Iaculis Av.,55191,Colombia,WESTON; SHIPLEY & WESTON LIMITED
Eleanor Hutchinson,1-501-783-2256,lacinia.vitae@yahoo.org,Ap #968-8472 Interdum Ave,372886,Peru,XITUS INSURANCE LIMITED
Addison Forbes,1-502-748-8673,orci.adipiscing@aol.co.uk,P.O. Box 647; 7765 Vel Rd.,442856,Philippines,WILDLOOP LIMITED
Kaseem Elliott,(341) 693-2918,sociis.natoque@icloud.com,Ap #119-6838 Gravida. Rd.,9716-5972,Poland,WESTANLEY TRADING & INVESTMENT COMPANY LIMITED
Ferdinand Oneil,1-323-617-8465,libero.et@yahoo.edu,694-3911 Aliquam Rd.,13922-13328,Colombia,WATERLOO PARK BOWLING CLUB LIMITED(THE)
Xanthus Jordan,1-937-212-2718,donec@aol.net,Ap #469-7388 Lacus. Av.,94-24,Australia,WILLIAM SPARROW LIMITED
Quinn Miller,(751) 240-1639,eros@aol.edu,3831 Eros. Avenue,7172,Australia,WM.BARTLEET & SONS LIMITED
Gary Rose,(738) 305-3778,dictum.sapien@yahoo.com,Ap #326-9420 Integer St.,711474,Indonesia,VALENTINES OF DUNDEE LIMITED
Rooney Sweet,1-620-744-0614,eleifend.cras.sed@hotmail.ca,568-6441 Mauris Rd.,42341,Canada,UNITED SALT LIMITED
Lunea Carr,1-621-873-3958,at.augue@hotmail.edu,3594 Sapien. St.,11324,New Zealand,WATERLOO NORTH LIMITED
Kamal Guthrie,1-861-136-3110,duis.sit@yahoo.co.uk,Ap #987-1402 Integer Ave,7473 KR,India,WILLIAM KENYON & SONS LIMITED
Davis Blanchard,1-677-753-8340,nulla.vulputate@yahoo.net,4014 Ligula. Road,583566,Netherlands,W.J.HISCOCK & SON;LIMITED
Preston Moreno,(623) 968-4601,congue.in@google.com,P.O. Box 792; 5533 Ornare Avenue,6615 QE,United States,XPB LIMITED
Harding Bender,1-814-481-1086,mi@hotmail.com,Ap #155-4942 Eleifend Av.,33448,United States,W.R.HOLDEN & CO.LIMITED
Lynn Benton,1-135-908-5293,arcu.eu.odio@hotmail.edu,2188 Metus Road,30356,Vietnam,WILLIAM STRIKE LIMITED
Burke Armstrong,1-964-551-6796,varius.ultrices@hotmail.org,Ap #688-6244 Massa. St.,768648,United States,UNITED FRIENDLY INSURANCE LIMITED
Aaron Golden,1-175-686-6911,diam.pellentesque.habitant@yahoo.net,Ap #773-1764 Facilisis. Rd.,3377,Ireland,WESTON-SUPER-MARE AND DISTRICT CONSTITUTIONAL CLUB LIMITED
Giacomo Bird,1-242-435-0175,nunc.lectus@icloud.net,959-1607 Adipiscing St.,5671 QV,Ukraine,WALLASEY MASONIC HALL;LIMITED(THE)
Jasmine Conner,(271) 881-2268,donec.vitae@protonmail.net,772-7861 Eget St.,78922,Spain,WORLEBURY GOLF CLUB LIMITED(THE)
Harper Branch,(772) 828-3334,ultrices@hotmail.edu,P.O. Box 969; 3522 Mi. Ave,8455-2168,Norway,YORKSHIRE INSURANCE COMPANY LIMITED
Hyacinth Mcintosh,(656) 974-7881,nec@google.ca,244-6905 Donec Street,87105,Indonesia,WEST BRIDGFORD FREEMASONS HALL COMPANY LIMITED(THE)
Carolyn Abbott,(577) 481-2128,faucibus.ut@google.co.uk,P.O. Box 436; 4191 A; Rd.,556887,Mexico,WORCESTER AND MIDLANDS COLD STORES LIMITED
Regina Brooks,(318) 322-8206,nascetur.ridiculus@icloud.org,Ap #942-5372 Enim. St.,68196,Mexico,WARDEN INVESTMENTS LIMITED
Hasad Camacho,(978) 362-2128,vivamus@protonmail.co.uk,936-3291 Justo. Rd.,7221,Sweden,WAITROSE LIMITED
Lillian Fernandez,(708) 477-3126,dictum@yahoo.net,P.O. Box 929; 7145 Mauris Rd.,55-305,United States,WALPOLE HALL;LIMITED
Lester Raymond,(362) 506-2562,morbi.quis.urna@protonmail.co.uk,591-7446 Tempor St.,84762,Spain,WM. BAILEY & CO. LIMITED
Seth Dalton,(549) 775-6486,sagittis.nullam.vitae@aol.net,927-3884 Elit; Av.,984344,Austria,WEREHAM GRAVEL COMPANY LIMITED(THE)
Colton Carlson,(331) 614-9173,sapien.cras@outlook.edu,P.O. Box 538; 1248 Id; Avenue,38267,Brazil,WITAN INVESTMENT TRUST PLC
Emerald Parsons,(566) 421-3766,pellentesque.eget.dictum@yahoo.org,654-7281 Ut St.,9392,Belgium,WILLIAMSON; CLIFF LIMITED
Derek Ferrell,1-649-872-8660,lorem.donec@aol.ca,389-5114 Est. Road,54277,Ireland,WEST BRADFORD GOLF CLUB LIMITED(THE)
Gloria Willis,1-776-865-6778,quis.diam.luctus@yahoo.co.uk,P.O. Box 668; 3785 Curae Rd.,25-96,France,UNISYS LIMITED
Chelsea Simmons,1-491-267-1863,nulla.facilisi@protonmail.org,663-2077 Aliquet Street,5854,Australia,UNITED SUA BETONG RUBBER ESTATES;LIMITED(THE)
Ruby Jimenez,1-976-284-4868,sit@protonmail.edu,Ap #930-3842 Viverra. Av.,2521,Germany,WILPSHIRE GOLF CLUB LIMITED
Belle Porter,(311) 961-5686,quisque.ornare@yahoo.co.uk,812-6817 Malesuada Rd.,8881,China,WATFORD ASSOCIATION FOOTBALL CLUB LIMITED(THE)
Marshall Waller,1-415-775-3842,ut@aol.net,P.O. Box 542; 9498 Praesent Av.,8984,Russian Federation,W.J.JEFFERY & CO. LIMITED
Ayanna Ferguson,(252) 493-2228,luctus.curabitur@google.ca,P.O. Box 504; 5095 A St.,87-058,Brazil,WHERRY AND SONS;LIMITED
Gabriel Osborne,(583) 537-9535,dictum@protonmail.org,584-1641 Convallis Avenue,27-026,South Africa,WEST SURREY GOLF CLUB COMPANY; LIMITED
Octavius Roy,(386) 478-1252,erat@icloud.ca,Ap #953-2117 Leo; Avenue,QB8W 5LK,Singapore,WILLIAM CORNS & SON LIMITED
Risa Ramirez,(303) 346-3285,nulla.integer.vulputate@icloud.co.uk,459-3923 Cursus Ave,3743,Spain,WEST BRADFORD BOWLING CLUB LIMITED(THE)
Phoebe Ingram,1-835-441-3318,eu@yahoo.edu,6601 Augue; St.,31501,China,WATFORD THEATRE COMPANY;LIMITED(THE)
Rama Wilson,(662) 186-8315,nec.cursus.a@aol.org,Ap #342-2427 Integer Avenue,8432,United Kingdom,W.HEFFER & SONS LIMITED
Rigel Zamora,1-733-201-0885,vestibulum@protonmail.co.uk,8395 Sapien. Avenue,674528,Indonesia,WHIRLPOOL UK APPLIANCES LIMITED
Henry Roth,(545) 547-8827,id.ante@outlook.co.uk,560-551 Vitae Avenue,81973-289,Ukraine,WHATMAN INTERNATIONAL LIMITED
Palmer Rosa,(586) 687-3674,fusce@outlook.edu,631-6561 Libero. St.,495478,Australia,WESTMINSTER TOBACCO COMPANY LIMITED
Daphne Strong,(357) 887-7961,nisi.a@hotmail.co.uk,783-2556 Elementum; Street,9122,France,VINCENT TIMBER LIMITED
Zorita Haley,1-828-798-6837,malesuada@outlook.ca,8501 Egestas. St.,726804,Vietnam,VECTURA GROUP SERVICES LIMITED
Regan Hodge,(276) 605-7964,sed.pharetra@google.com,234-5276 Vulputate; Av.,33952,Peru,WETHERBY GOLF CLUB LIMITED
April Castro,1-914-293-5937,suspendisse.aliquet.sem@aol.co.uk,8663 Sapien. Road,31439,Pakistan,WALTON HASSELL & PORT LIMITED
Emmanuel Duran,1-511-221-4172,proin@protonmail.ca,7738 Convallis Av.,15867,Australia,VERULAM GOLF CLUB LIMITED
Xavier Lyons,1-451-272-6451,curabitur.sed@aol.ca,Ap #761-4583 Pharetra; St.,ZD2 8MA,Canada,WS (REALISATIONS) LIMITED
George Fitzgerald,1-761-741-3535,magna.nec@outlook.co.uk,Ap #955-8025 Dapibus Ave,223815,United States,WORKSOP BOWLING CLUB LIMITED (THE)
Lana Barker,1-894-521-2498,orci.luctus.et@yahoo.edu,Ap #756-2885 Feugiat. St.,222566,Belgium,W.H.GAZE & SONS;LIMITED
William Mcintyre,1-607-816-1037,consectetuer@aol.co.uk,P.O. Box 670; 5632 Sociosqu St.,5292,Nigeria,WARNER MUSIC ARTIST SERVICES INTERNATIONAL LIMITED
Nolan Haney,1-281-610-9683,nunc.mauris@protonmail.co.uk,P.O. Box 818; 8987 Eros. Rd.,880,Turkey,VOITH PAPER LIMITED
Benedict Skinner,(848) 842-3548,eu@google.ca,Ap #811-7236 Nunc Ave,83135-516,Australia,W.B. HARRISON & SONS LIMITED
Winter Valenzuela,(709) 588-8637,enim@aol.net,292-1687 Vestibulum St.,4857,Austria,WILLIAM LOVE;LIMITED
Melanie Bridges,(786) 813-7726,vestibulum.ut.eros@yahoo.net,Ap #802-645 Feugiat Street,300141,Colombia,WHITE MARBLE QUARRIES LIMITED
Raphael Weaver,(317) 544-1366,aliquam.tincidunt@protonmail.ca,909-6618 Porttitor Road,677350,Vietnam,UNIDIS FORTY NINE LIMITED
Jason Golden,(516) 539-4735,nulla.facilisis.suspendisse@aol.org,2831 Sit Avenue,717677,Mexico,WHITWELL SOCIAL CLUB AND INSTITUTE;LIMITED(THE)
Magee Bruce,(262) 788-7862,cursus.et.eros@outlook.ca,971-2851 Maecenas Avenue,81607,Spain,YUILLS LIMITED
Rashad Mcintosh,1-462-461-7751,urna.et@hotmail.co.uk,Ap #212-5595 Ut Road,F1H 7AL,Philippines,YORKSHIRE PROPERTY & INVESTMENT CO.LIMITED
Myra Marshall,1-455-181-1485,laoreet.ipsum@aol.edu,P.O. Box 691; 3442 Et Road,43339,Norway,WEBB & SON (COMBS)LIMITED
Preston Schneider,(361) 861-3117,mi.aliquam.gravida@aol.ca,886-3618 Dui. St.,41210,South Korea,WILLIAM LEECH LIMITED
Hakeem Keller,1-276-755-7778,et.libero@google.com,P.O. Box 416; 1329 Sit Road,6115,Colombia,W LANCASTER & CO LIMITED
Akeem Russell,(703) 568-4763,magna@google.org,9113 Lectus. Rd.,73873,Ireland,WALLACE BROTHERS TRADING & INDUSTRIAL LIMITED
Ishmael Mullen,(778) 588-3421,dis@protonmail.org,P.O. Box 974; 7921 Condimentum. Rd.,21818,Pakistan,WAKEFIELD AND DISTRICT GOLF CLUB.LIMITED(THE)
Mannix Terry,(517) 518-1695,diam.at@yahoo.org,Ap #819-5577 Risus. Avenue,8323,United Kingdom,WELSH INSURANCE CORPORATION LIMITED
Pandora Grimes,(643) 801-0865,ipsum.suspendisse@protonmail.ca,Ap #301-3256 Non; St.,1512,Sweden,WRIGHT HEALTH GROUP LIMITED
Shad Dennis,1-476-815-6746,ante@hotmail.net,7672 Laoreet Rd.,1364,Turkey,WADEBRIDGE CATTLE MARKET LIMITED
Mari Rivera,1-698-365-3512,nunc@yahoo.ca,3502 Rhoncus. Av.,387424,Netherlands,WILLIAM GIBBONS & SONS;LIMITED
Sawyer Mayer,1-578-982-4456,mattis.velit.justo@outlook.org,Ap #292-5696 Et Ave,74734-397,Peru,W.H.OTTLEY;LIMITED
Keaton Harris,1-168-422-6079,at.nisi@google.com,6495 A; Ave,53280,New Zealand,WERKO LIMITED
Hiram Holder,(578) 153-1216,cursus@google.edu,901-8689 Id Rd.,20728,New Zealand,YORKSHIRE BANK LIMITED
Hasad Blackwell,1-484-445-2273,donec@icloud.net,9906 Malesuada Av.,541444,Ireland,WELLINGBOROUGH BOWLING CLUB;LIMITED
Alec Ochoa,(507) 377-8688,sapien@protonmail.com,9829 Varius. Av.,27570,Ukraine,WITHY GROVE STORES LIMITED(THE)
Michael Terrell,1-854-354-9541,dis.parturient.montes@icloud.com,Ap #291-2790 Porttitor Road,3065,Netherlands,WEST OF SCOTLAND SHIPBREAKING COMPANY LIMITED
Michael Trujillo,(246) 319-4864,consequat.dolor@outlook.org,Ap #543-888 Eget Rd.,7625,Canada,WILLIAM WALKERDINE;LIMITED
Constance Mayer,1-736-658-3450,integer@icloud.co.uk,330-188 Ipsum. Avenue,737833,United Kingdom,WETTERN BROTHERS LIMITED
Carson Cain,(300) 217-7638,eu@aol.com,Ap #689-5509 Nisl. Street,14349,Colombia,WALLINGTON WESTON & CO.LIMITED
Alvin Mcgee,1-676-681-8480,suscipit.est@yahoo.org,914-9982 Dictum Street,827178,Mexico,WILLIAM HAMPTON (HOLDINGS) LIMITED
Chaney Barrett,(710) 615-6967,integer@outlook.net,Ap #354-346 Enim. Rd.,589728,Singapore,WHITE'S IRONMONGERY STORES;LIMITED
Ava Sheppard,1-572-516-6687,eu.neque.pellentesque@hotmail.ca,Ap #559-5753 Est Avenue,585424,United States,WILLIAM TATHAM LIMITED
Irene Ball,1-447-483-8511,mus.donec.dignissim@outlook.ca,Ap #589-3874 Mollis. Av.,3039,South Korea,WM. C. YUILLE & COMPANY LIMITED
Philip Cabrera,1-372-375-2758,tellus.suspendisse.sed@aol.org,P.O. Box 551; 5999 Tincidunt Avenue,742265,Mexico,WILDINGS LIMITED
Amery Kramer,1-758-662-9758,tincidunt.adipiscing@google.com,6085 Integer Ave,4567,Spain,WALTERS & CO.(OXFORD)LIMITED
Quamar Houston,1-234-510-3405,egestas@protonmail.com,P.O. Box 903; 4817 Diam. Road,8503,Spain,WIRRAL CHAMBER OF COMMERCE AND INDUSTRY
Phelan Armstrong,1-225-825-1481,penatibus.et@hotmail.edu,408-8747 Amet; Road,4417,Chile,W.F.B. BAIRD & CO.; LIMITED
Deborah Townsend,(528) 631-4270,dictum.eu@google.ca,Ap #547-163 Ornare; Av.,6128,Australia,WADSWORTH LIFTS LIMITED
Brendan Maldonado,(567) 562-6281,id.magna.et@hotmail.ca,Ap #948-9880 Molestie Av.,844215,Peru,WITHNELL BRICK AND TERRA COTTA COMPANY(1912)LIMITED(THE)
Mona Singleton,1-347-564-8377,sodales.elit@google.net,Ap #321-5736 Mi Road,887679,New Zealand,WADDINGTON AND LEDGER LIMITED
Beatrice Day,(843) 396-8137,et.lacinia.vitae@aol.com,Ap #337-8711 Nunc St.,4252,Canada,WHITLEY BAY GOLF CLUB LTD(THE)
Maryam Byers,1-162-878-7644,per.inceptos@hotmail.ca,589-213 Ornare Av.,57786,Chile,WREXHAM GOLF COMPANY LIMITED
Galvin Townsend,1-419-732-2361,diam.sed.diam@icloud.com,6334 Aenean Road,632371,Canada,WILLIAM ROUND & SON LIMITED
Hedwig Gilliam,1-645-944-8229,et.ultrices.posuere@google.co.uk,Ap #486-4569 Cursus Street,6124 ND,Poland,WREXHAM ASSOCIATION FOOTBALL CLUB LIMITED(THE)
Isadora Tillman,1-632-560-7644,sociis.natoque.penatibus@hotmail.net,Ap #228-6018 Et; Rd.,795960,China,ULTIMATE OUTDOORS LIMITED
Alec Page,(212) 676-3617,aenean.eget@yahoo.ca,P.O. Box 220; 1689 Pulvinar Rd.,4288 PY,Philippines,WARWICK & ESPLEN LIMITED
Grace Moody,1-252-404-7411,eget@outlook.com,Ap #221-7029 Ornare. Street,85-34,New Zealand,WHITLEY BAY MASONIC HALL COMPANY LIMITED (THE)
Keith Hancock,1-578-596-9853,tortor.nunc@yahoo.co.uk,Ap #823-9950 Massa Av.,73122,Poland,WITNEY ELECTRIC THEATRE
Oren Jacobson,1-580-631-6137,etiam.vestibulum@yahoo.org,907-5512 Quis; Road,31827,Russian Federation,WINCANTON RACES COMPANY LIMITED(THE)
Lucian Mcknight,1-941-385-0203,non.lobortis@google.ca,Ap #600-9633 Nunc Street,42441,China,YORK WARD & ROWLATT LIMITED
Elmo Charles,(922) 163-1523,maecenas.iaculis.aliquet@icloud.net,P.O. Box 313; 4353 Ridiculus Street,5791,United States,W.H.LORDEN & SON;LIMITED
Otto Williams,1-639-532-5118,ac@yahoo.edu,807-2978 Lectus Ave,28-75,France,UNITED KINGDOM MUTUAL WAR RISKS ASSOCIATION LIMITED
Kermit Butler,1-826-621-5327,et.arcu.imperdiet@aol.net,Ap #389-4724 Integer Ave,67476,New Zealand,WILTSHIER CONSTRUCTION (THAMES VALLEY) LIMITED
Reagan Eaton,1-352-845-1815,orci.luctus@icloud.co.uk,Ap #775-2193 Cras St.,237578,United Kingdom,W.H.MUNSEY LIMITED
Harriet Levy,(766) 744-1560,iaculis.quis.pede@outlook.net,Ap #728-2953 Tincidunt; St.,12772-55513,Chile,W..D.C. & F. THOMSON LIMITED
Raphael Serrano,(255) 379-5774,in.hendrerit.consectetuer@protonmail.com,801-3085 Aliquam Street,650466,Mexico,W. MOORCROFT LIMITED
Tiger Riggs,1-357-703-7246,convallis.ligula.donec@outlook.co.uk,858-495 Vel St.,62447,United Kingdom,WM GREENSMITH & SON LIMITED
Ross Hooper,1-265-578-7567,velit.in@aol.net,P.O. Box 515; 2920 Aliquet Rd.,29221,Canada,WEST END GOLF CLUB(HALIFAX)LIMITED.(THE)
Illiana Soto,(387) 198-7361,sit.amet.faucibus@outlook.org,P.O. Box 563; 2311 Pellentesque Rd.,866743,Ukraine,WORLD TRANSPORT AGENCY LIMITED
Abdul Rojas,1-385-794-3123,ullamcorper.duis@outlook.edu,Ap #870-4197 Morbi Road,68116,Belgium,WELLERMAN BROS.LIMITED
Tanek Elliott,1-546-825-8148,eget@outlook.ca,P.O. Box 753; 9659 Eu Street,134545,United States,W.T.AKED HOLDINGS LIMITED
Calista Kidd,(387) 401-7721,nulla.semper@google.net,113-4226 Nascetur Av.,342631,Russian Federation,WILLIAM BIRCH & SONS LIMITED
Kibo Peterson,1-821-949-8384,ut.sem@protonmail.edu,967-2308 Fringilla Rd.,Y4T 6H3,Belgium,W.J.TATEM LIMITED
Xenos Sheppard,(387) 172-8913,mattis.ornare.lectus@outlook.org,4807 Egestas Av.,35862,Russian Federation,WILBERFORCE ESTATES COMPANY LIMITED(THE)
Boris Craig,1-268-493-1387,mauris@icloud.edu,Ap #645-1455 Leo. Rd.,633348,Austria,WHITBREAD SUNDERLAND 2 LIMITED
Ruth Leach,(346) 868-5260,enim.etiam.gravida@icloud.ca,Ap #370-2986 Elit; Rd.,6593,Italy,WESTERN BUSES LIMITED
Arden Durham,(456) 383-2727,vel.pede.blandit@protonmail.net,2424 Vivamus Av.,423332,Germany,WELLS(SOMERSET)GOLF CLUB;LIMITED
Hamish Farley,(762) 976-6648,luctus.ipsum@yahoo.co.uk,Ap #686-2447 Nam St.,635181,Colombia,WINTHROP ROGERS LIMITED
Buckminster Graves,1-580-432-9366,egestas@protonmail.edu,611-4716 Quam Road,852513,Austria,WILLIAM CLARK & SONS HOLDINGS LIMITED
Zachery Kirk,(938) 783-1671,malesuada@protonmail.net,Ap #819-1473 Aliquam Rd.,58384-68885,China,WOODLANDS HOME & GARDEN GROUP LIMITED
Aurora Hester,(952) 548-7537,fusce.aliquet.magna@google.co.uk,3341 Posuere; Avenue,8781,Netherlands,W.ROWLANDSON & COMPANY LIMITED
Hollee Harrell,(746) 148-7565,at.auctor@hotmail.co.uk,633-8790 Porttitor Av.,7744-3709,India,UNITED DISTILLERS FRANCE LIMITED
Alana Wiley,(405) 639-2850,egestas.sed@icloud.ca,Ap #584-6668 Fusce Rd.,5516,Germany,UNIDIS FORTY THREE LIMITED
Randall Hunter,(281) 312-1368,nibh.enim@icloud.org,P.O. Box 570; 5146 Varius Street,54225,Pakistan,WILLIAM COOK FOUNDRY (TOW LAW) LIMITED
Kyle Mcdowell,(157) 211-8718,pretium.aliquet@aol.org,Ap #490-9002 Commodo St.,8872,Canada,WEST CENTRAL AND SUBURBAN INVESTMENT COMPANY;LIMITED(THE)
Philip Johnston,(163) 467-5631,magna@aol.net,7883 Nunc Rd.,38-78,Peru,WATTS BLAKE BEARNE AND COMPANY LIMITED
Grady Fulton,(510) 159-3647,curabitur.vel@google.ca,Ap #926-9757 Dui. Street,4634,New Zealand,WILLIAM H.PAINTER;LIMITED
Kareem Callahan,(877) 838-6571,sociis.natoque.penatibus@icloud.net,P.O. Box 406; 7162 Massa. St.,677588,Poland,WARD END SOCIAL CLUB LIMITED(THE)
Hakeem Schneider,1-767-355-7271,consectetuer@protonmail.org,9394 Molestie Road,763576,Chile,WISBECH AND DIST CONS AND UNIONIST WORKING MEN'S CLUB COMPANY LIMITED(THE)
Ainsley Snyder,(625) 231-6534,fermentum@aol.ca,895-8561 A Avenue,71471,Mexico,W.H.YEATMAN & SONS;LIMITED
Nash Hickman,1-436-810-4682,enim.nunc@google.net,Ap #571-738 Nostra; Av.,23-36,Ireland,WORKSOP GOLF CLUB LIMITED(THE)
Wyatt Sexton,(831) 420-4638,ornare.egestas.ligula@icloud.ca,Ap #409-4924 Morbi Avenue,75-31,South Africa,WALTER HAMMERTON & COMPANY LIMITED
Wendy Rice,(660) 635-1551,turpis.non@protonmail.ca,Ap #431-5642 Lorem Road,h6X 0P9,Pakistan,VAUXHALL MOTORS LIMITED
Michael Dorsey,1-187-236-2637,mauris.morbi@yahoo.edu,Ap #799-9684 Lacinia. Av.,8670,Indonesia,UNITED REFORMED CHURCH TRUST
Susan Dickson,1-840-732-3213,metus@google.com,P.O. Box 579; 4662 Vulputate; Street,84691,Vietnam,WORPLESDON GOLF CLUB ESTATES LIMITED
Blaze Landry,(357) 633-2077,laoreet.posuere@outlook.net,6032 Ante; Street,221464,Brazil,WCH TRUST FOR CHILDREN
Elmo Delacruz,(782) 103-7748,quisque.tincidunt@yahoo.net,397-8193 Posuere Av.,8312,United Kingdom,YWCA ENGLAND & WALES
Kibo Mcneil,(645) 853-2360,parturient@aol.net,207-9552 Ad Av.,38472,Mexico,VALE EUROPE LIMITED
Stacey Richards,1-928-745-5143,nec.ante.maecenas@icloud.edu,P.O. Box 872; 5482 Eu; Ave,56846,Nigeria,W & J LINNEY LIMITED
Emerson Mercado,(456) 310-1589,inceptos@aol.org,793-4220 Velit. Street,517864,China,UNILEVER AUSTRALIA INVESTMENTS LIMITED
Odysseus Rosario,1-415-460-5332,erat@hotmail.net,Ap #811-529 Sem Road,E18 9WJ,Colombia,WINDHILL CONSERVATIVE CLUB BUILDINGS COMPANY LIMITED(THE)
Levi Hendrix,(335) 572-8465,velit@google.org,325-1981 Nibh. St.,21875,Turkey,WEST END TST. LIMITED
Harriet Molina,1-388-815-3111,ipsum.suspendisse@hotmail.net,8103 Volutpat. St.,3216,South Korea,WILLIAM MAY (MANCHESTER) LIMITED
Bevis Harrell,(891) 238-9814,turpis.non.enim@hotmail.net,Ap #635-5926 Adipiscing Av.,645679,Italy,WIGHTMAN & PARRISH LIMITED
Chase Golden,1-592-410-5394,consequat.purus.maecenas@hotmail.co.uk,Ap #822-1941 Duis Av.,947867,Australia,VOSPER SHIPREPAIRERS LIMITED
Castor Whitney,1-736-372-0613,sed.et.libero@hotmail.co.uk,Ap #668-3479 Nullam Rd.,77-64,Ireland,WARWICKSHIRE LAW SOCIETY;LIMITED(THE)
Luke Day,(166) 249-9178,mauris.rhoncus@protonmail.edu,5692 Eu; Av.,83147,Indonesia,WIELAND METALS BIRMINGHAM LTD.
Bethany Delaney,(787) 755-4251,egestas.a.dui@protonmail.org,P.O. Box 245; 9401 Cursus Av.,42133,Indonesia,UNIVAR SOLUTIONS UK LIMITED
Marshall Parks,1-865-192-1537,neque.pellentesque.massa@icloud.ca,Ap #583-1718 Tortor. St.,80921-315,Peru,WILLIAM MARSTON LIMITED
Quyn Skinner,(887) 746-6735,neque@hotmail.org,1130 Mattis Av.,633581,Germany,UNIGATE PROPERTIES LIMITED
Jameson Williams,(595) 461-3424,lorem@protonmail.co.uk,1615 Sed Ave,77132,Mexico,WOODLANDS PARK ESTATE COMPANY LIMITED
Mason Phelps,1-747-158-8542,ornare@outlook.edu,Ap #781-6557 Sed Av.,2385,Ukraine,W M HEAP & PARTNERS LIMITED
Timothy Olsen,(814) 801-1100,tempus@hotmail.co.uk,538-7448 Mauris. Street,32375,Pakistan,WAVE ENVIRONMENTAL LIMITED
Wyatt Lopez,(692) 436-5746,ut.nec.urna@hotmail.edu,7884 Egestas; St.,14667,United States,WILLIAM JEFFCOAT LIMITED
Dustin Hatfield,1-105-871-7809,quis.pede@protonmail.com,P.O. Box 685; 1386 Quam St.,30518,Colombia,UNIVERSAL WOOD PRODUCTS LIMITED
Hilel Holcomb,1-845-223-0569,mauris.eu@yahoo.co.uk,P.O. Box 744; 6809 Ipsum Rd.,30-245,Indonesia,WHALLEY GOLF CLUB LIMITED
Kim Martinez,1-225-568-2357,pede@aol.net,876-6388 Cras St.,50301,Ukraine,WESTERN UNITED FINANCE COMPANY LIMITED
Quynn Hogan,1-861-811-2178,rhoncus@aol.co.uk,Ap #820-2084 Dui; Ave,8214-6673,India,WINCHESTER DIOCESAN BOARD OF FINANCE(THE)
Todd Valentine,1-517-679-3577,est.ac@yahoo.ca,977-4865 Non; Rd.,7691 HQ,Canada,UNICORN SELF SERVE LIMITED
Daquan England,(578) 585-2384,fermentum.vel@aol.com,P.O. Box 127; 5010 Lobortis; Street,4515,Chile,VICTORIA DROP FORGINGS CO.;LIMITED
Stone Macias,1-816-855-6173,sit.amet@outlook.net,915-8913 Nullam Avenue,427475,Spain,VIVID GROUP LIMITED
Igor Garrison,1-196-361-5448,suscipit.nonummy.fusce@google.co.uk,P.O. Box 471; 9549 Amet St.,70431,Norway,W.P. NOTCUTT LIMITED
Suki Miles,(264) 516-1862,enim.etiam@hotmail.org,Ap #731-7568 Semper Rd.,108214,New Zealand,W.FOULSHAM & CO.LIMITED
Cedric Montoya,1-728-546-2777,massa.integer@hotmail.net,P.O. Box 371; 2411 Penatibus Road,57385,Belgium,VALERO ENERGY UK LTD
Chloe Clarke,(376) 157-7245,lectus.rutrum@google.com,178-5656 Fringilla Ave,57444,Italy,VICKERS (LEEDS) LIMITED
Wylie Keith,1-215-319-2017,ac@google.org,Ap #719-9645 Cursus Street,69514,Turkey,WILLIAM BROWN'S SAW MILLS;LIMITED
Lillith Kramer,1-827-586-5968,vitae.velit@yahoo.edu,Ap #658-1968 Dapibus Road,8146,China,WOLF SAFETY LAMP COMPANY LIMITED(THE)
Matthew Sweet,(613) 287-4034,posuere.vulputate@yahoo.edu,5453 Est Road,606939,Turkey,WATCHES OF SWITZERLAND COMPANY LIMITED
Dennis Valenzuela,1-533-766-4421,sem.ut.dolor@yahoo.edu,Ap #197-4375 Malesuada St.,36812-44611,Indonesia,WILLIAM STEVENS & CO.(OLD HILL) LIMITED
Fatima Mcgowan,1-612-231-7231,nec@outlook.net,617-9120 Mus. Road,47765,Peru,WHITBREAD UK LIMITED
Kimberly Skinner,(846) 774-7675,elit.etiam@icloud.co.uk,321-3694 Bibendum. Rd.,15118,South Africa,VEITCHI (HOLDINGS) LIMITED
Armand Frye,1-496-678-4812,tincidunt.congue@protonmail.edu,Ap #233-5084 Ornare; Rd.,303317,Brazil,WELSH AND JEFFERIES LIMITED
Julian Newton,1-481-710-8831,nam.interdum@hotmail.org,Ap #291-6531 Vestibulum Av.,440513,United Kingdom,WILLIAM BLISS & SON;LIMITED
Marvin Greer,(442) 559-4306,non.ante@google.edu,Ap #894-9835 Libero. Rd.,38755,Italy,WHEWAY FILTERS LIMITED
Paki Horton,1-612-349-6817,nec.ligula@google.co.uk,Ap #149-6770 Mattis Av.,21-198,Austria,WATERLOO MILL SERVICES LIMITED
Clayton Gomez,1-883-357-3854,erat.volutpat@icloud.co.uk,Ap #805-7051 Vitae Rd.,6863-8278,Austria,WHITE HOUSE PORTRUSH LIMITED - THE
Paki Lyons,(349) 258-5781,maecenas.iaculis@protonmail.edu,Ap #210-4065 Erat St.,535769,Costa Rica,W.J. MILNE LIMITED
Shellie Freeman,1-648-347-8063,sed.dictum@google.ca,P.O. Box 125; 9307 Elit; St.,26542,Spain,UMECO LIMITED
Caryn Nunez,(574) 574-9702,donec@google.ca,Ap #938-3169 Nec; Ave,8819,South Africa,VOGAN & CO.;LIMITED
Charlotte Mcdaniel,1-644-789-3712,dui.fusce@icloud.net,Ap #470-8256 Consectetuer Street,59903,United Kingdom,WILLIAMS TARR CONSTRUCTION LIMITED
Kaseem Wheeler,1-462-246-2541,dolor.dapibus@outlook.co.uk,931-2438 Ullamcorper; St.,24004,Australia,WALKER FENDER COMPANY;LIMITED(THE)
Wesley Hensley,(732) 415-5173,eget.massa@hotmail.ca,P.O. Box 166; 6959 Amet St.,7081 VD,Poland,WILLIAM T NICHOLLS LIMITED
Aretha Cummings,(818) 692-1324,a.tortor.nunc@hotmail.ca,122-7914 Massa Road,48683,Norway,W.SEABROOK & SONS LIMITED
Brendan Melton,(152) 293-2447,gravida@protonmail.com,Ap #219-3251 Sed Street,7393,Singapore,WESTERN UNITED INVESTMENT COMPANY LIMITED
Ifeoma Mcdowell,1-733-453-7265,pede.sagittis@protonmail.org,560-4882 Lobortis Ave,17484-927,Russian Federation,WIRA TECHNOLOGY GROUP LIMITED
Damon Herman,(726) 552-8543,mauris@aol.co.uk,957-5788 Nisi St.,848863,Brazil,WOOLTON GOLF CLUB LIMITED
Xantha Alvarez,1-603-551-3877,nunc.sed.orci@outlook.com,388-9779 Donec Road,5277,Germany,W.H.DIXON & SONS LIMITED
Judah Yang,(695) 563-7927,erat.in.consectetuer@icloud.com,P.O. Box 560; 2621 Malesuada St.,55399,United States,WINCHESTER CHAMBER OF COMMERCE & INDUSTRY
Aurelia O'brien,(921) 858-4395,est.nunc@icloud.ca,Ap #868-2249 Hendrerit Road,3105,Poland,WIRRAL NEWSPAPERS LIMITED
Theodore Harding,(887) 337-1115,lorem@protonmail.edu,Ap #133-3123 Enim. St.,61631,Nigeria,WESTSIDE CO 5 LIMITED
Shea Hancock,1-885-229-4826,justo.faucibus@icloud.ca,Ap #960-1546 Non Road,563242,Turkey,VETLIFE
Fay Erickson,1-629-467-2610,aliquam.fringilla@hotmail.net,227-7238 Tincidunt Street,29148,Pakistan,WALTER LAWRENCE LIMITED
Brenden Maynard,1-765-931-3411,dapibus.quam@protonmail.org,906-1023 Nam Rd.,5306,Netherlands,WM.NICHOLES & SON LIMITED
Austin Chandler,(742) 883-8598,nibh@aol.org,Ap #964-354 Tellus Rd.,228888,Costa Rica,VESUVIUS CERAMICS LIMITED
Meredith Fisher,(641) 574-8342,mollis.integer@outlook.net,Ap #966-276 Nonummy. Rd.,216430,Turkey,UNITED BUILDERS MERCHANTS LIMITED
Perry Daniels,(809) 739-6436,phasellus.at@yahoo.org,Ap #624-5192 Cras St.,884797,Spain,UNIQEMA UK LIMITED
Jayme Joyner,(673) 577-6638,urna@icloud.net,Ap #141-4193 Eu Av.,237855,Philippines,WATSON'S MOTOR WORKS LIMITED
George Wolf,1-685-772-3525,magna@outlook.com,888-8331 Fusce Av.,74781,South Africa,UNITED BALTIC CORPORATION LIMITED
Rooney Collins,(345) 892-8477,sociis.natoque.penatibus@google.co.uk,Ap #651-4838 Ullamcorper; Avenue,23142,Ireland,WILLIAM MOSS GROUP LIMITED(THE)
Lucy Jenkins,(988) 637-7762,commodo.hendrerit@aol.ca,9044 Cras St.,458879,Brazil,W.& T.JACKSON & CO;LIMITED
Jana Hurst,1-612-462-9174,dui.quis.accumsan@outlook.org,826-5563 Donec St.,3638-7294,Ireland,VACTITE LIMITED
Hedwig Key,(479) 937-2528,egestas.hendrerit@icloud.co.uk,8415 Bibendum. Road,00576-04447,Colombia,WALLGATE LIMITED
Clarke Reynolds,(299) 971-9222,proin@protonmail.edu,563-9858 Tellus Av.,55-660,China,WALTON & COMPANY LIMITED
Joy Patterson,1-178-850-5995,pellentesque.massa.lobortis@aol.co.uk,Ap #863-3698 Netus Street,27252,South Africa,WADE CERAMICS LTD.
Merrill Jacobson,(858) 720-7519,varius.ultrices@aol.com,7985 Felis Avenue,335522,Indonesia,WM. BROWN (REGISTRARS) LIMITED
Halla Wilkinson,1-829-494-4046,amet.metus@outlook.co.uk,Ap #739-5356 Eros Rd.,351876,Brazil,WILLIAM SESSIONS LIMITED
Arsenio Sargent,1-748-873-3465,curae.donec@icloud.co.uk,328-3055 Lacinia. Rd.,2566,India,WESTFIELD WAR MEMORIAL VILLAGE - LANCASTER
Fatima Weaver,1-785-757-5311,ornare.elit@aol.edu,P.O. Box 866; 533 Cursus. Avenue,835296,Spain,WADSLEY HOUSE SOCIAL CLUB LIMITED
Mari Rodriguez,1-134-719-6425,a.magna.lorem@aol.co.uk,P.O. Box 991; 9697 Sed St.,A7R 4B5,Norway,ZAN LIMITED
Aidan Gomez,(588) 843-3532,mauris.sagittis@hotmail.net,308-5007 Tincidunt Rd.,873414,Peru,WALTER SOMERS LIMITED
Sean Walter,(421) 705-7688,et.magnis.dis@google.net,P.O. Box 200; 2127 Magnis Avenue,636355,Ukraine,WILKINSON AND WHITLEY;LIMITED
Rose Noel,(808) 326-1686,id.ante.nunc@google.net,7359 Tincidunt Rd.,274419,Ireland,WIGGINS & CO.LIMITED
Roth Byrd,1-609-339-8844,nunc.lectus@icloud.edu,Ap #466-5260 A; Av.,32986,Turkey,VOLEX PLC
Mannix Gordon,1-324-207-4786,ipsum.dolor@protonmail.com,P.O. Box 261; 688 Nec; Av.,87-78,Indonesia,VTB CAPITAL PLC
Penelope Moon,1-214-643-7714,porttitor.tellus@aol.ca,P.O. Box 582; 1881 Nisi. Av.,70,China,YMCA LEICESTERSHIRE
Alexis Fuller,(214) 373-7936,tincidunt.pede@outlook.org,802-4567 Fermentum Road,244534,Netherlands,WHITEHALL INSURANCE SERVICES LIMITED
Salvador Clayton,1-740-667-1342,tincidunt@yahoo.edu,7883 Et St.,84156,Indonesia,UNDERSHAFT (NULLA) LIMITED
Tamara Bruce,(121) 958-2212,varius.orci@hotmail.net,P.O. Box 875; 7734 Magnis Road,1905,Mexico,WALLINGTON BOWLING CLUB LIMITED(THE)
Eaton Sykes,(767) 575-8773,id.sapien@yahoo.org,3182 Neque St.,I8G 8T5,Nigeria,WOMEN'S ENGINEERING SOCIETY
Fuller Mcneil,(445) 619-7687,ultrices.sit@protonmail.net,190-7323 Hymenaeos. Ave,275165,Sweden,WALSHAM BROTHERS & CO. LIMITED
Burke Keller,1-545-533-8357,nisi.cum.sociis@yahoo.ca,9121 Accumsan Ave,31953,Sweden,W.WOODWARD;LIMITED
Francis Miller,1-514-237-0215,ornare@protonmail.net,Ap #422-3989 Vestibulum Road,KS66 6SP,Turkey,WELWYN COMPONENTS LIMITED
Damian Roberson,(683) 378-5118,mauris.sit@aol.ca,Ap #659-4991 Risus. Road,20717,Russian Federation,UNIVERSITY TUTORIAL CLASSES LIMITED
Jacob Ballard,(288) 363-3231,mauris.rhoncus@protonmail.net,Ap #752-5666 Nulla Street,37372,Germany,VICARAGE ESTATE COMPANY;LIMITED(THE)
William Emerson,1-735-511-8825,est@google.com,P.O. Box 217; 6199 Posuere; Avenue,263328,Ireland,VE-RI-BEST MANUFACTURING COMPANY LIMITED(THE)
Ifeoma Macdonald,(531) 413-4193,tempus.mauris@hotmail.org,Ap #337-4919 Risus. Rd.,06-839,Singapore,UNION ELECTRIC STEEL UK LIMITED
Hector Charles,(523) 425-1787,purus.mauris@hotmail.co.uk,P.O. Box 788; 4099 Cursus Street,87642,Norway,WEST WILTS GOLF CLUB;LIMITED(THE)
Charissa Hansen,(881) 934-8381,lacus@hotmail.edu,219-1500 A; Rd.,1413 VA,Sweden,WIGRAM & WARE;LIMITED
Price Butler,(795) 663-6940,dictum@google.ca,620-5467 Eu; St.,T4T 1H5,Sweden,VICKERYS LIMITED
Desirae Solomon,(738) 752-5712,justo@hotmail.org,6619 Molestie Street,756006,United States,WALTON AND FRINTON YACHT TRUST LIMITED (THE)
Ali Newman,1-705-292-5626,vestibulum.ante@icloud.com,Ap #570-4050 Sit St.,346160,Chile,WALLSEND ENGINEERS TRADES SOCIAL CLUB AND INSTITUTE LIMITED
Venus Ryan,(258) 179-2668,malesuada@outlook.ca,609-6513 Feugiat Avenue,132837,South Korea,WEST RIDING CLEANING COMPANY LIMITED
Jenette Middleton,(594) 864-6775,donec.felis@google.co.uk,537-5927 Lobortis Rd.,48-645,Indonesia,WYVERN STRUCTURES LIMITED
Graham Hood,1-874-119-3371,nostra@outlook.net,P.O. Box 498; 5449 Lacus. Av.,5740,Costa Rica,WHESSOE LIMITED
Kane Gilmore,1-438-235-3176,auctor.velit.aliquam@yahoo.com,Ap #592-1775 Auctor Rd.,17614,Indonesia,V.A.MARRIOTT;LIMITED
Shana Soto,(534) 115-0622,massa.mauris@aol.edu,5659 Natoque Road,61-875,Ukraine,VESTEY NOVA LIMITED
Holly Finch,(264) 325-0766,parturient@hotmail.ca,9837 Non Street,5176,New Zealand,UNIDIS THIRTY ONE LIMITED
Mannix Carney,1-753-866-5526,at.fringilla@hotmail.co.uk,P.O. Box 711; 9032 Orci. St.,3648,Spain,WITHINGTON GOLF CLUB LIMITED
Hanae Bowman,1-664-292-4949,ut.quam.vel@aol.ca,Ap #389-4502 Nam St.,7964 QT,France,WATSON NORIE LIMITED
Eleanor Schwartz,(941) 512-2126,felis.orci.adipiscing@icloud.edu,P.O. Box 389; 4528 Penatibus Street,85671,Vietnam,YACHT MARKETING (SOUTHERN) LIMITED
Jocelyn Hewitt,1-366-502-4014,eget.lacus.mauris@outlook.com,722-5067 Porttitor Road,4172,Canada,W.BIGNALL & COMPANY LIMITED
Grant Roth,1-419-677-8970,molestie.dapibus@outlook.org,Ap #339-7323 Donec St.,7811,Peru,WEST OF SCOTLAND ENGINEERING; MOTOR AND WELDING COMPANY; LIMITED
Vielka Ramirez,(948) 297-1282,mattis@protonmail.co.uk,P.O. Box 532; 2940 Aliquam Street,2167,Brazil,WHYTE AND SON (NOTTINGHAM) LIMITED
Hilda William,(410) 155-8611,duis.ac@aol.org,Ap #274-9417 Nibh St.,79617,Ireland,W.K.WEST;LIMITED
Emerson Fletcher,1-139-629-1384,neque.sed@google.edu,633-7329 Primis Ave,34487,Poland,WILLESLEY PARK GOLF CLUB LIMITED
Amy Walls,(851) 553-0264,tincidunt@yahoo.edu,P.O. Box 206; 5783 Natoque St.,51592,South Africa,W.G.MONNERY & CO.;LIMITED
Karen Thomas,1-721-824-4375,faucibus@aol.org,4056 Ornare. Road,57814,Peru,WETHERBY STEEPLECHASE COMMITTEE;LIMITED
Aiko Frost,(191) 773-5574,faucibus.ut@protonmail.edu,P.O. Box 660; 1137 Id St.,7248,Pakistan,W.S.HEANE;LIMITED
Dale Robles,(560) 719-8894,sed.nunc.est@yahoo.edu,260-5987 Vel Street,78293,Colombia,UNSWORTH CRICKET AND TENNIS CLUB;LIMITED
Deirdre Peters,(307) 912-5235,in.felis@yahoo.co.uk,Ap #615-933 Eu St.,33-38,Spain,W. & C. SCOTT; LIMITED
Paki Sanders,(788) 275-3126,at.iaculis@google.ca,P.O. Box 473; 5390 Aliquet Rd.,1255-2296,Nigeria,WEST BRIDGFORD LAWN TENNIS CLUB LIMITED
Gwendolyn Hester,(283) 323-3423,aenean.sed@protonmail.net,Ap #736-4166 Sem; Rd.,21914,Austria,WESSINGTON PROPERTIES LIMITED
Richard Wiggins,1-195-448-4815,semper.cursus@google.org,667-5416 Massa. St.,613743,France,WACOAL EMEA LTD
Ifeoma Wiley,1-577-886-8558,mollis.dui@google.edu,Ap #534-5520 Tellus St.,301112,Norway,WANSTEAD SPORTS GROUNDS LIMITED(THE)
George Richard,1-733-333-6400,orci@protonmail.org,P.O. Box 642; 3886 Lorem St.,245345,France,WIDDOP BINGHAM & CO. LIMITED
Dominic Hall,1-811-142-4215,sit@hotmail.co.uk,Ap #171-5601 Pretium Ave,7888,Austria,WESTMINSTER TRUST LIMITED(THE)
Chastity Gill,(809) 382-2164,ipsum@yahoo.co.uk,Ap #684-8514 Mi Rd.,S2S 5X1,Mexico,WENSLEYDALE LONG WOOL SHEEP BREEDERS ASSOCIATION(THE)
Dillon Cobb,1-415-282-4352,ullamcorper.duis@hotmail.com,P.O. Box 338; 4107 Egestas. Av.,8788,Spain,WILLIAM CHAMBERS & SONS LIMITED
Leonard Everett,1-328-971-0910,sed.nec@outlook.net,Ap #231-6951 Dui. Street,28-224,Turkey,WALSALL FOOTBALL CLUB;LIMITED(THE)
Graham Ball,1-467-939-4513,nisl.nulla.eu@outlook.com,Ap #853-763 Sed Avenue,3268,Colombia,WATTS OF LYDNEY GROUP LIMITED
Talon Chan,1-413-643-4454,quisque.libero@icloud.com,660-1795 Ullamcorper Avenue,8763-0533,Pakistan,WOODFORD BOWLING CLUB LIMITED
Phoebe Klein,(532) 874-8445,consequat@hotmail.net,Ap #689-6685 Ultricies Road,61138,Belgium,WORTHING GOLF CLUB COMPANY;LIMITED(THE)
Benedict Norris,1-232-166-2991,mauris@yahoo.co.uk,Ap #331-5278 Ac Avenue,423534,Vietnam,UNBAR ROTHON LIMITED
Troy Allen,(386) 785-1765,vel.arcu@aol.com,Ap #504-7516 Eu Street,8006,United Kingdom,WEST CHESHIRE & NORTH WALES CHAMBER OF COMMERCE
Julian Shannon,1-475-688-3368,vitae@outlook.org,Ap #948-4029 Nisl. Av.,782454,South Korea,WEST CORNWALL GOLF CLUB LIMITED
Hammett Foster,(512) 362-2043,amet.ante.vivamus@aol.org,Ap #196-3351 Cursus Av.,5187,India,WADDINGTON LIMITED
Miranda Wilcox,(860) 376-5138,lectus.cum@yahoo.com,3850 Aliquam Street,5726,Vietnam,UNITED ARTISTS CORPORATION LIMITED
Zia England,(833) 861-6311,quis@google.edu,727 Eget Rd.,7469,Netherlands,WELSH BAPTIST UNION CORPORATION;LIMITED(THE)
Gage Rogers,(843) 866-4212,eu@google.edu,380-2443 Mauris; St.,581243,Austria,UNILEVER OVERSEAS HOLDINGS LIMITED
Carl Buchanan,(569) 736-9075,augue.eu@protonmail.edu,611-3626 Eleifend Road,2173-6483,Chile,WOLVERHAMPTON MASONIC HALL COMPANY LIMITED(THE)
Mark Vasquez,1-772-369-1730,lacus.mauris@yahoo.net,Ap #878-4970 Eu Avenue,8838,Netherlands,W.O. LEWIS (BADGES) LIMITED
Aquila Kaufman,1-611-246-2164,posuere.enim.nisl@google.ca,P.O. Box 132; 8808 A St.,4785,New Zealand,WARNERS TECHNICAL SERVICES LIMITED
Ursula Hubbard,1-411-573-2308,ante@outlook.co.uk,Ap #886-8523 Eget Road,327496,Spain,VICTORIA LEAGUE FOR COMMONWEALTH FRIENDSHIP(THE)
Reagan Calderon,1-704-378-9282,libero.proin.sed@outlook.net,Ap #225-1441 Ipsum Street,65635,South Korea,WALMERSLEY GOLF COURSE LIMITED
Curran Sherman,1-523-577-9510,a.dui@google.org,Ap #398-9459 Rutrum Road,813787,Vietnam,WIGAN RUGBY LEAGUE CLUB LIMITED
Ciara Harrison,1-891-864-1348,donec@protonmail.net,403-6247 Lacus Rd.,516853,Sweden,WEST AUCK NO. 8 LIMITED
Brock Andrews,(905) 481-1221,cras.sed.leo@aol.net,1856 Nec St.,4985,Peru,WIBAU BLAW KNOX LIMITED
